{
  "type": "FeatureCollection",
  "features": [
    {
      "type": "Feature",
      "properties": {
        "norad_id": 41890,
        "name": "CYGFM07",
        "group": "weather",
        "lat": 24.55220223848,
        "lon": 82.19688597154354,
        "alt_km": 417.6454367038523,
        "timestamp": "2025-12-09T16:56:36.222624+00:00",
        "meta_object_name": "CYGFM07",
        "meta_object_id": "2016-078G",
        "meta_epoch": "2025-12-09T12:06:19.538784",
        "meta_mean_motion": 15.49796907,
        "meta_eccentricity": 0.0009543,
        "meta_inclination": 34.948,
        "meta_ra_of_asc_node": 42.6632,
        "meta_arg_of_pericenter": 187.1245,
        "meta_mean_anomaly": 172.9342,
        "meta_ephemeris_type": 0,
        "meta_classification_type": "U",
        "meta_norad_cat_id": 41890,
        "meta_element_set_no": 999,
        "meta_rev_at_epoch": 49945,
        "meta_bstar": 0.00051284,
        "meta_mean_motion_dot": 0.0002955,
        "meta_mean_motion_ddot": 0,
        "tle_line1": "1 41890U 16078G   25343.50439281  .00029550  00000+0  51284-3 0  9996",
        "tle_line2": "2 41890  34.9480  42.6632 0009543 187.1245 172.9342 15.49796907499450"
      },
      "geometry": {
        "type": "Point",
        "coordinates": [
          82.19688597154354,
          24.55220223848
        ]
      }
    },
    {
      "type": "Feature",
      "properties": {
        "norad_id": 41891,
        "name": "CYGFM03",
        "group": "weather",
        "lat": -30.54265285069148,
        "lon": -79.06443769061927,
        "alt_km": 417.0178715229267,
        "timestamp": "2025-12-09T16:56:36.222634+00:00",
        "meta_object_name": "CYGFM03",
        "meta_object_id": "2016-078H",
        "meta_epoch": "2025-12-09T11:15:51.446016",
        "meta_mean_motion": 15.49696079,
        "meta_eccentricity": 0.0008842,
        "meta_inclination": 34.9436,
        "meta_ra_of_asc_node": 44.8093,
        "meta_arg_of_pericenter": 173.9116,
        "meta_mean_anomaly": 186.1714,
        "meta_ephemeris_type": 0,
        "meta_classification_type": "U",
        "meta_norad_cat_id": 41891,
        "meta_element_set_no": 999,
        "meta_rev_at_epoch": 49942,
        "meta_bstar": 0.00049584,
        "meta_mean_motion_dot": 0.00028455,
        "meta_mean_motion_ddot": 0,
        "tle_line1": "1 41891U 16078H   25343.46934544  .00028455  00000+0  49584-3 0  9997",
        "tle_line2": "2 41891  34.9436  44.8093 0008842 173.9116 186.1714 15.49696079499424"
      },
      "geometry": {
        "type": "Point",
        "coordinates": [
          -79.06443769061927,
          -30.54265285069148
        ]
      }
    },
    {
      "type": "Feature",
      "properties": {
        "norad_id": 43010,
        "name": "FENGYUN 3D",
        "group": "weather",
        "lat": -8.914200232606515,
        "lon": -48.60705411562524,
        "alt_km": 830.9232626566954,
        "timestamp": "2025-12-09T16:56:36.222646+00:00",
        "meta_object_name": "FENGYUN 3D",
        "meta_object_id": "2017-072A",
        "meta_epoch": "2025-12-09T11:54:41.087232",
        "meta_mean_motion": 14.1968134,
        "meta_eccentricity": 7.42e-05,
        "meta_inclination": 98.9891,
        "meta_ra_of_asc_node": 309.7575,
        "meta_arg_of_pericenter": 191.9863,
        "meta_mean_anomaly": 168.1295,
        "meta_ephemeris_type": 0,
        "meta_classification_type": "U",
        "meta_norad_cat_id": 43010,
        "meta_element_set_no": 999,
        "meta_rev_at_epoch": 41807,
        "meta_bstar": -2.0869e-05,
        "meta_mean_motion_dot": -9e-07,
        "meta_mean_motion_ddot": 0,
        "tle_line1": "1 43010U 17072A   25343.49630888 -.00000090  00000+0 -20869-4 0  9997",
        "tle_line2": "2 43010  98.9891 309.7575 0000742 191.9863 168.1295 14.19681340418079"
      },
      "geometry": {
        "type": "Point",
        "coordinates": [
          -48.60705411562524,
          -8.914200232606515
        ]
      }
    },
    {
      "type": "Feature",
      "properties": {
        "norad_id": 43013,
        "name": "NOAA 20 (JPSS-1)",
        "group": "weather",
        "lat": 34.21316692685006,
        "lon": 106.05359761095741,
        "alt_km": 823.7945763154194,
        "timestamp": "2025-12-09T16:56:36.222657+00:00",
        "meta_object_name": "NOAA 20 (JPSS-1)",
        "meta_object_id": "2017-073A",
        "meta_epoch": "2025-12-09T11:11:12.183936",
        "meta_mean_motion": 14.19524409,
        "meta_eccentricity": 0.0002138,
        "meta_inclination": 98.7595,
        "meta_ra_of_asc_node": 279.7988,
        "meta_arg_of_pericenter": 92.0227,
        "meta_mean_anomaly": 268.1193,
        "meta_ephemeris_type": 0,
        "meta_classification_type": "U",
        "meta_norad_cat_id": 43013,
        "meta_element_set_no": 999,
        "meta_rev_at_epoch": 41755,
        "meta_bstar": 0.0001092,
        "meta_mean_motion_dot": 1.86e-06,
        "meta_mean_motion_ddot": 0,
        "tle_line1": "1 43013U 17073A   25343.46611324  .00000186  00000+0  10920-3 0  9992",
        "tle_line2": "2 43013  98.7595 279.7988 0002138  92.0227 268.1193 14.19524409417553"
      },
      "geometry": {
        "type": "Point",
        "coordinates": [
          106.05359761095741,
          34.21316692685006
        ]
      }
    },
    {
      "type": "Feature",
      "properties": {
        "norad_id": 43226,
        "name": "GOES 17",
        "group": "weather",
        "lat": 0.1763399875434666,
        "lon": -116.67473731444106,
        "alt_km": 35773.89503223378,
        "timestamp": "2025-12-09T16:56:36.222673+00:00",
        "meta_object_name": "GOES 17",
        "meta_object_id": "2018-022A",
        "meta_epoch": "2025-12-09T12:25:42.053376",
        "meta_mean_motion": 1.0027167,
        "meta_eccentricity": 0.00034,
        "meta_inclination": 0.4517,
        "meta_ra_of_asc_node": 89.1538,
        "meta_arg_of_pericenter": 186.2478,
        "meta_mean_anomaly": 260.0352,
        "meta_ephemeris_type": 0,
        "meta_classification_type": "U",
        "meta_norad_cat_id": 43226,
        "meta_element_set_no": 999,
        "meta_rev_at_epoch": 2852,
        "meta_bstar": 0,
        "meta_mean_motion_dot": -1.8e-06,
        "meta_mean_motion_ddot": 0,
        "tle_line1": "1 43226U 18022A   25343.51784784 -.00000180  00000+0  00000+0 0  9999",
        "tle_line2": "2 43226   0.4517  89.1538 0003400 186.2478 260.0352  1.00271670 28522"
      },
      "geometry": {
        "type": "Point",
        "coordinates": [
          -116.67473731444106,
          0.1763399875434666
        ]
      }
    },
    {
      "type": "Feature",
      "properties": {
        "norad_id": 43491,
        "name": "FENGYUN 2H",
        "group": "weather",
        "lat": -1.2191755617704034,
        "lon": 52.235702799598386,
        "alt_km": 35798.503114697305,
        "timestamp": "2025-12-09T16:56:36.222687+00:00",
        "meta_object_name": "FENGYUN 2H",
        "meta_object_id": "2018-050A",
        "meta_epoch": "2025-12-09T12:14:15.357408",
        "meta_mean_motion": 1.00271069,
        "meta_eccentricity": 0.0002934,
        "meta_inclination": 2.5422,
        "meta_ra_of_asc_node": 81.3502,
        "meta_arg_of_pericenter": 164.691,
        "meta_mean_anomaly": 95.3838,
        "meta_ephemeris_type": 0,
        "meta_classification_type": "U",
        "meta_norad_cat_id": 43491,
        "meta_element_set_no": 999,
        "meta_rev_at_epoch": 2753,
        "meta_bstar": 0,
        "meta_mean_motion_dot": -1.28e-06,
        "meta_mean_motion_ddot": 0,
        "tle_line1": "1 43491U 18050A   25343.50989997 -.00000128  00000+0  00000+0 0  9998",
        "tle_line2": "2 43491   2.5422  81.3502 0002934 164.6910  95.3838  1.00271069 27531"
      },
      "geometry": {
        "type": "Point",
        "coordinates": [
          52.235702799598386,
          -1.2191755617704034
        ]
      }
    },
    {
      "type": "Feature",
      "properties": {
        "norad_id": 43689,
        "name": "METOP-C",
        "group": "weather",
        "lat": -79.87435599738173,
        "lon": 162.57141833684588,
        "alt_km": 828.4178464753531,
        "timestamp": "2025-12-09T16:56:36.222699+00:00",
        "meta_object_name": "METOP-C",
        "meta_object_id": "2018-087A",
        "meta_epoch": "2025-12-09T10:38:00.799584",
        "meta_mean_motion": 14.21510083,
        "meta_eccentricity": 0.0001476,
        "meta_inclination": 98.6934,
        "meta_ra_of_asc_node": 41.2631,
        "meta_arg_of_pericenter": 48.0195,
        "meta_mean_anomaly": 312.1108,
        "meta_ephemeris_type": 0,
        "meta_classification_type": "U",
        "meta_norad_cat_id": 43689,
        "meta_element_set_no": 999,
        "meta_rev_at_epoch": 36787,
        "meta_bstar": 0.00014111,
        "meta_mean_motion_dot": 2.65e-06,
        "meta_mean_motion_ddot": 0,
        "tle_line1": "1 43689U 18087A   25343.44306481  .00000265  00000+0  14111-3 0  9994",
        "tle_line2": "2 43689  98.6934  41.2631 0001476  48.0195 312.1108 14.21510083367875"
      },
      "geometry": {
        "type": "Point",
        "coordinates": [
          162.57141833684588,
          -79.87435599738173
        ]
      }
    }
  ]
}